CTC1_L_00014001-01
1 10000U 22767ZJ  26075.70028935  .00000000  00000+0  00000-0 0  9998
2 10000  40.0000   0.0000 0000000   0.0000   0.0000 15.80155680    17
CTC1_L_00014001-02
1 10001U 26905HC  26075.70028935  .00000000  00000+0  00000-0 0  9997
2 10001  40.0000   0.0000 0000000   0.0000  90.0000 15.80155680    17
CTC1_L_00014001-03
1 10002U 26356LL  26075.70028935  .00000000  00000+0  00000-0 0  9998
2 10002  40.0000   0.0000 0000000   0.0000 180.0000 15.80155680    18
CTC1_L_00014001-04
1 10003U 26923GY  26075.70028935  .00000000  00000+0  00000-0 0  9999
2 10003  40.0000   0.0000 0000000   0.0000 270.0000 15.80155680    19
CTC1_L_00014002-01
1 10004U 26323GN  26075.70028935  .00000000  00000+0  00000-0 0  9994
2 10004  40.0000  12.0000 0000000   0.0000  12.0000 15.80155680    17
CTC1_L_00014002-02
1 10005U 23495RG  26075.70028935  .00000000  00000+0  00000-0 0  9992
2 10005  40.0000  12.0000 0000000   0.0000 102.0000 15.80155680    18
CTC1_L_00014002-03
1 10006U 26064VL  26075.70028935  .00000000  00000+0  00000-0 0  9998
2 10006  40.0000  12.0000 0000000   0.0000 192.0000 15.80155680    18
CTC1_L_00014002-04
1 10007U 22937O   26075.70028935  .00000000  00000+0  00000-0 0  9994
2 10007  40.0000  12.0000 0000000   0.0000 282.0000 15.80155680    19
CTC1_L_00014003-01
1 10008U 26417YJ  26075.70028935  .00000000  00000+0  00000-0 0  9992
2 10008  40.0000  24.0000 0000000   0.0000  24.0000 15.80155680    17
CTC1_L_00014003-02
1 10009U 23964DJ  26075.70028935  .00000000  00000+0  00000-0 0  9997
2 10009  40.0000  24.0000 0000000   0.0000 114.0000 15.80155680    18
CTC1_L_00014003-03
1 10010U 23869AZ  26075.70028935  .00000000  00000+0  00000-0 0  9993
2 10010  40.0000  24.0000 0000000   0.0000 204.0000 15.80155680    10
CTC1_L_00014003-04
1 10011U 24974JV  26075.70028935  .00000000  00000+0  00000-0 0  9992
2 10011  40.0000  24.0000 0000000   0.0000 294.0000 15.80155680    10
CTC1_L_00014004-01
1 10012U 24902CB  26075.70028935  .00000000  00000+0  00000-0 0  9994
2 10012  40.0000  36.0000 0000000   0.0000  36.0000 15.80155680    18
CTC1_L_00014004-02
1 10013U 24688P   26075.70028935  .00000000  00000+0  00000-0 0  9996
2 10013  40.0000  36.0000 0000000   0.0000 126.0000 15.80155680    19
CTC1_L_00014004-03
1 10014U 24670LT  26075.70028935  .00000000  00000+0  00000-0 0  9998
2 10014  40.0000  36.0000 0000000   0.0000 216.0000 15.80155680    10
CTC1_L_00014004-04
1 10015U 24787JP  26075.70028935  .00000000  00000+0  00000-0 0  9998
2 10015  40.0000  36.0000 0000000   0.0000 306.0000 15.80155680    11
CTC1_L_00014005-01
1 10016U 22695ZC  26075.70028935  .00000000  00000+0  00000-0 0  9995
2 10016  40.0000  48.0000 0000000   0.0000  48.0000 15.80155680    18
CTC1_L_00014005-02
1 10017U 22960PG  26075.70028935  .00000000  00000+0  00000-0 0  9991
2 10017  40.0000  48.0000 0000000   0.0000 138.0000 15.80155680    19
CTC1_L_00014005-03
1 10018U 23962QC  26075.70028935  .00000000  00000+0  00000-0 0  9995
2 10018  40.0000  48.0000 0000000   0.0000 228.0000 15.80155680    10
CTC1_L_00014005-04
1 10019U 23436VQ  26075.70028935  .00000000  00000+0  00000-0 0  9992
2 10019  40.0000  48.0000 0000000   0.0000 318.0000 15.80155680    11
CTC1_L_00014006-01
1 10020U 26677CP  26075.70028935  .00000000  00000+0  00000-0 0  9994
2 10020  40.0000  60.0000 0000000   0.0000  60.0000 15.80155680    11
CTC1_L_00014006-02
1 10021U 24999HF  26075.70028935  .00000000  00000+0  00000-0 0  9990
2 10021  40.0000  60.0000 0000000   0.0000 150.0000 15.80155680    12
CTC1_L_00014006-03
1 10022U 25941EF  26075.70028935  .00000000  00000+0  00000-0 0  9999
2 10022  40.0000  60.0000 0000000   0.0000 240.0000 15.80155680    13
CTC1_L_00014006-04
1 10023U 25132YQ  26075.70028935  .00000000  00000+0  00000-0 0  9992
2 10023  40.0000  60.0000 0000000   0.0000 330.0000 15.80155680    14
CTC1_L_00014007-01
1 10024U 25024BY  26075.70028935  .00000000  00000+0  00000-0 0  9993
2 10024  40.0000  72.0000 0000000   0.0000  72.0000 15.80155680    11
CTC1_L_00014007-02
1 10025U 25285IM  26075.70028935  .00000000  00000+0  00000-0 0  9993
2 10025  40.0000  72.0000 0000000   0.0000 162.0000 15.80155680    12
CTC1_L_00014007-03
1 10026U 22140CK  26075.70028935  .00000000  00000+0  00000-0 0  9991
2 10026  40.0000  72.0000 0000000   0.0000 252.0000 15.80155680    13
CTC1_L_00014007-04
1 10027U 22001KC  26075.70028935  .00000000  00000+0  00000-0 0  9998
2 10027  40.0000  72.0000 0000000   0.0000 342.0000 15.80155680    14
CTC1_L_00014008-01
1 10028U 22223K   26075.70028935  .00000000  00000+0  00000-0 0  9995
2 10028  40.0000  84.0000 0000000   0.0000  84.0000 15.80155680    11
CTC1_L_00014008-02
1 10029U 26497XS  26075.70028935  .00000000  00000+0  00000-0 0  9993
2 10029  40.0000  84.0000 0000000   0.0000 174.0000 15.80155680    12
CTC1_L_00014008-03
1 10030U 26051BO  26075.70028935  .00000000  00000+0  00000-0 0  9991
2 10030  40.0000  84.0000 0000000   0.0000 264.0000 15.80155680    14
CTC1_L_00014008-04
1 10031U 23154GY  26075.70028935  .00000000  00000+0  00000-0 0  9993
2 10031  40.0000  84.0000 0000000   0.0000 354.0000 15.80155680    15
CTC1_L_00014009-01
1 10032U 25431XM  26075.70028935  .00000000  00000+0  00000-0 0  9994
2 10032  40.0000  96.0000 0000000   0.0000  96.0000 15.80155680    12
CTC1_L_00014009-02
1 10033U 25429PQ  26075.70028935  .00000000  00000+0  00000-0 0  9992
2 10033  40.0000  96.0000 0000000   0.0000 186.0000 15.80155680    13
CTC1_L_00014009-03
1 10034U 22806TB  26075.70028935  .00000000  00000+0  00000-0 0  9999
2 10034  40.0000  96.0000 0000000   0.0000 276.0000 15.80155680    14
CTC1_L_00014009-04
1 10035U 26336VZ  26075.70028935  .00000000  00000+0  00000-0 0  9992
2 10035  40.0000  96.0000 0000000   0.0000   6.0000 15.80155680    16
CTC1_L_00014010-01
1 10036U 24101NN  26075.70028935  .00000000  00000+0  00000-0 0  9991
2 10036  40.0000 108.0000 0000000   0.0000 108.0000 15.80155680    14
CTC1_L_00014010-02
1 10037U 22894GM  26075.70028935  .00000000  00000+0  00000-0 0  9999
2 10037  40.0000 108.0000 0000000   0.0000 198.0000 15.80155680    14
CTC1_L_00014010-03
1 10038U 26513UW  26075.70028935  .00000000  00000+0  00000-0 0  9992
2 10038  40.0000 108.0000 0000000   0.0000 288.0000 15.80155680    15
CTC1_L_00014010-04
1 10039U 24636TI  26075.70028935  .00000000  00000+0  00000-0 0  9997
2 10039  40.0000 108.0000 0000000   0.0000  18.0000 15.80155680    17
CTC1_L_00014011-01
1 10040U 25169IR  26075.70028935  .00000000  00000+0  00000-0 0  9991
2 10040  40.0000 120.0000 0000000   0.0000 120.0000 15.80155680    17
CTC1_L_00014011-02
1 10041U 22234FE  26075.70028935  .00000000  00000+0  00000-0 0  9992
2 10041  40.0000 120.0000 0000000   0.0000 210.0000 15.80155680    18
CTC1_L_00014011-03
1 10042U 26973UB  26075.70028935  .00000000  00000+0  00000-0 0  9997
2 10042  40.0000 120.0000 0000000   0.0000 300.0000 15.80155680    19
CTC1_L_00014011-04
1 10043U 22316AZ  26075.70028935  .00000000  00000+0  00000-0 0  9995
2 10043  40.0000 120.0000 0000000   0.0000  30.0000 15.80155680    10
CTC1_L_00014012-01
1 10044U 23359VR  26075.70028935  .00000000  00000+0  00000-0 0  9994
2 10044  40.0000 132.0000 0000000   0.0000 132.0000 15.80155680    17
CTC1_L_00014012-02
1 10045U 22721NK  26075.70028935  .00000000  00000+0  00000-0 0  9997
2 10045  40.0000 132.0000 0000000   0.0000 222.0000 15.80155680    18
CTC1_L_00014012-03
1 10046U 25783CL  26075.70028935  .00000000  00000+0  00000-0 0  9999
2 10046  40.0000 132.0000 0000000   0.0000 312.0000 15.80155680    19
CTC1_L_00014012-04
1 10047U 22603WD  26075.70028935  .00000000  00000+0  00000-0 0  9998
2 10047  40.0000 132.0000 0000000   0.0000  42.0000 15.80155680    10
CTC1_L_00014013-01
1 10048U 23720VH  26075.70028935  .00000000  00000+0  00000-0 0  9990
2 10048  40.0000 144.0000 0000000   0.0000 144.0000 15.80155680    17
CTC1_L_00014013-02
1 10049U 26282PN  26075.70028935  .00000000  00000+0  00000-0 0  9997
2 10049  40.0000 144.0000 0000000   0.0000 234.0000 15.80155680    18
CTC1_L_00014013-03
1 10050U 23570GN  26075.70028935  .00000000  00000+0  00000-0 0  9996
2 10050  40.0000 144.0000 0000000   0.0000 324.0000 15.80155680    10
CTC1_L_00014013-04
1 10051U 22502YY  26075.70028935  .00000000  00000+0  00000-0 0  9991
2 10051  40.0000 144.0000 0000000   0.0000  54.0000 15.80155680    11
CTC1_L_00014014-01
1 10052U 26413HA  26075.70028935  .00000000  00000+0  00000-0 0  9997
2 10052  40.0000 156.0000 0000000   0.0000 156.0000 15.80155680    18
CTC1_L_00014014-02
1 10053U 23038TH  26075.70028935  .00000000  00000+0  00000-0 0  9998
2 10053  40.0000 156.0000 0000000   0.0000 246.0000 15.80155680    19
CTC1_L_00014014-03
1 10054U 24908RI  26075.70028935  .00000000  00000+0  00000-0 0  9996
2 10054  40.0000 156.0000 0000000   0.0000 336.0000 15.80155680    10
CTC1_L_00014014-04
1 10055U 25856FF  26075.70028935  .00000000  00000+0  00000-0 0  9990
2 10055  40.0000 156.0000 0000000   0.0000  66.0000 15.80155680    11
CTC1_L_00014015-01
1 10056U 23221FX  26075.70028935  .00000000  00000+0  00000-0 0  9995
2 10056  40.0000 168.0000 0000000   0.0000 168.0000 15.80155680    18
CTC1_L_00014015-02
1 10057U 25039GI  26075.70028935  .00000000  00000+0  00000-0 0  9995
2 10057  40.0000 168.0000 0000000   0.0000 258.0000 15.80155680    19
CTC1_L_00014015-03
1 10058U 24414LO  26075.70028935  .00000000  00000+0  00000-0 0  9992
2 10058  40.0000 168.0000 0000000   0.0000 348.0000 15.80155680    10
CTC1_L_00014015-04
1 10059U 26335UY  26075.70028935  .00000000  00000+0  00000-0 0  9997
2 10059  40.0000 168.0000 0000000   0.0000  78.0000 15.80155680    11
CTC1_L_00014016-01
1 10060U 26455RL  26075.70028935  .00000000  00000+0  00000-0 0  9992
2 10060  40.0000 180.0000 0000000   0.0000 180.0000 15.80155680    11
CTC1_L_00014016-02
1 10061U 25206YB  26075.70028935  .00000000  00000+0  00000-0 0  9996
2 10061  40.0000 180.0000 0000000   0.0000 270.0000 15.80155680    12
